{
  "type": "FeatureCollection",
  "features": [
    {
      "type": "Feature",
      "properties": {
        "norad_id": 67161,
        "name": "GALILEO B",
        "group": "last-30-days",
        "lat": 51.28271075748235,
        "lon": -136.96352361185626,
        "alt_km": 22942.596030974175,
        "timestamp": "2025-12-27T13:34:48.011148+00:00",
        "meta_object_name": "GALILEO B",
        "meta_object_id": "2025-302B",
        "meta_epoch": "2025-12-26T19:37:10.068960",
        "meta_mean_motion": 1.72972318,
        "meta_eccentricity": 0.00047769,
        "meta_inclination": 54.2304,
        "meta_ra_of_asc_node": 106.9693,
        "meta_arg_of_pericenter": 256.4913,
        "meta_mean_anomaly": 103.4489,
        "meta_ephemeris_type": 0,
        "meta_classification_type": "U",
        "meta_norad_cat_id": 67161,
        "meta_element_set_no": 999,
        "meta_rev_at_epoch": 18,
        "meta_bstar": 0,
        "meta_mean_motion_dot": 1.6e-07,
        "meta_mean_motion_ddot": 0,
        "tle_line1": "1 67161U 25302B   25360.81747765  .00000016  00000+0  00000+0 0  9999",
        "tle_line2": "2 67161  54.2304 106.9693 0004776 256.4913 103.4489  1.72972318   187"
      },
      "geometry": {
        "type": "Point",
        "coordinates": [
          -136.96352361185626,
          51.28271075748235
        ]
      }
    },
    {
      "type": "Feature",
      "properties": {
        "norad_id": 67162,
        "name": "ARIANE 6 R/B",
        "group": "last-30-days",
        "lat": 48.92319185467999,
        "lon": -128.65599014064108,
        "alt_km": 22912.330872161292,
        "timestamp": "2025-12-27T13:34:48.011162+00:00",
        "meta_object_name": "ARIANE 6 R/B",
        "meta_object_id": "2025-302C",
        "meta_epoch": "2025-12-19T07:12:31.071168",
        "meta_mean_motion": 1.73130298,
        "meta_eccentricity": 2.559e-05,
        "meta_inclination": 54.2437,
        "meta_ra_of_asc_node": 107.222,
        "meta_arg_of_pericenter": 160.7324,
        "meta_mean_anomaly": 199.2296,
        "meta_ephemeris_type": 0,
        "meta_classification_type": "U",
        "meta_norad_cat_id": 67162,
        "meta_element_set_no": 999,
        "meta_rev_at_epoch": 8,
        "meta_bstar": 0,
        "meta_mean_motion_dot": -5e-08,
        "meta_mean_motion_ddot": 0,
        "tle_line1": "1 67162U 25302C   25353.30035962 -.00000005  00000+0  00000+0 0  9994",
        "tle_line2": "2 67162  54.2437 107.2220 0000255 160.7324 199.2296  1.73130298    88"
      },
      "geometry": {
        "type": "Point",
        "coordinates": [
          -128.65599014064108,
          48.92319185467999
        ]
      }
    },
    {
      "type": "Feature",
      "properties": {
        "norad_id": 67219,
        "name": "DISKSAT A",
        "group": "last-30-days",
        "lat": 42.22154237332199,
        "lon": 26.909752316157295,
        "alt_km": 545.0599291799444,
        "timestamp": "2025-12-27T13:34:48.011173+00:00",
        "meta_object_name": "DISKSAT A",
        "meta_object_id": "2025-305A",
        "meta_epoch": "2025-12-20T09:08:30.149664",
        "meta_mean_motion": 15.05762698,
        "meta_eccentricity": 0.0003912,
        "meta_inclination": 45.0057,
        "meta_ra_of_asc_node": 310.0654,
        "meta_arg_of_pericenter": 276.1097,
        "meta_mean_anomaly": 83.9332,
        "meta_ephemeris_type": 0,
        "meta_classification_type": "U",
        "meta_norad_cat_id": 67219,
        "meta_element_set_no": 999,
        "meta_rev_at_epoch": 33,
        "meta_bstar": 5.0887e-05,
        "meta_mean_motion_dot": 5.1e-06,
        "meta_mean_motion_ddot": 0,
        "tle_line1": "1 67219U 25305A   25354.38090451  .00000510  00000+0  50887-4 0  9996",
        "tle_line2": "2 67219  45.0057 310.0654 0003912 276.1097  83.9332 15.05762698   337"
      },
      "geometry": {
        "type": "Point",
        "coordinates": [
          26.909752316157295,
          42.22154237332199
        ]
      }
    },
    {
      "type": "Feature",
      "properties": {
        "norad_id": 67220,
        "name": "DISKSAT B",
        "group": "last-30-days",
        "lat": 42.78299207326788,
        "lon": 24.35231612606751,
        "alt_km": 545.7043969203214,
        "timestamp": "2025-12-27T13:34:48.011183+00:00",
        "meta_object_name": "DISKSAT B",
        "meta_object_id": "2025-305B",
        "meta_epoch": "2025-12-20T05:57:31.803264",
        "meta_mean_motion": 15.05702195,
        "meta_eccentricity": 0.0004681,
        "meta_inclination": 45.0108,
        "meta_ra_of_asc_node": 310.7693,
        "meta_arg_of_pericenter": 270.4757,
        "meta_mean_anomaly": 89.5581,
        "meta_ephemeris_type": 0,
        "meta_classification_type": "U",
        "meta_norad_cat_id": 67220,
        "meta_element_set_no": 999,
        "meta_rev_at_epoch": 31,
        "meta_bstar": 5.1086e-05,
        "meta_mean_motion_dot": 5.11e-06,
        "meta_mean_motion_ddot": 0,
        "tle_line1": "1 67220U 25305B   25354.24828476  .00000511  00000+0  51086-4 0  9992",
        "tle_line2": "2 67220  45.0108 310.7693 0004681 270.4757  89.5581 15.05702195   312"
      },
      "geometry": {
        "type": "Point",
        "coordinates": [
          24.35231612606751,
          42.78299207326788
        ]
      }
    },
    {
      "type": "Feature",
      "properties": {
        "norad_id": 67221,
        "name": "DISKSAT C",
        "group": "last-30-days",
        "lat": 43.178859066094404,
        "lon": 22.279000223405795,
        "alt_km": 545.1963992052588,
        "timestamp": "2025-12-27T13:34:48.011198+00:00",
        "meta_object_name": "DISKSAT C",
        "meta_object_id": "2025-305C",
        "meta_epoch": "2025-12-20T07:33:11.308608",
        "meta_mean_motion": 15.0565367,
        "meta_eccentricity": 0.00043877,
        "meta_inclination": 45.0067,
        "meta_ra_of_asc_node": 310.4143,
        "meta_arg_of_pericenter": 282.7791,
        "meta_mean_anomaly": 77.2594,
        "meta_ephemeris_type": 0,
        "meta_classification_type": "U",
        "meta_norad_cat_id": 67221,
        "meta_element_set_no": 999,
        "meta_rev_at_epoch": 31,
        "meta_bstar": 0.00010190761,
        "meta_mean_motion_dot": 1.256e-05,
        "meta_mean_motion_ddot": 0,
        "tle_line1": "1 67221U 25305C   25354.31471422  .00001256  00000+0  10191-3 0  9994",
        "tle_line2": "2 67221  45.0067 310.4143 0004387 282.7791  77.2594 15.05653670   312"
      },
      "geometry": {
        "type": "Point",
        "coordinates": [
          22.279000223405795,
          43.178859066094404
        ]
      }
    },
    {
      "type": "Feature",
      "properties": {
        "norad_id": 67222,
        "name": "DISKSAT D",
        "group": "last-30-days",
        "lat": 43.82065802001122,
        "lon": 18.368302235061567,
        "alt_km": 545.1313491132196,
        "timestamp": "2025-12-27T13:34:48.011212+00:00",
        "meta_object_name": "DISKSAT D",
        "meta_object_id": "2025-305D",
        "meta_epoch": "2025-12-20T07:33:21.625632",
        "meta_mean_motion": 15.05567005,
        "meta_eccentricity": 0.00044772,
        "meta_inclination": 45.0056,
        "meta_ra_of_asc_node": 310.415,
        "meta_arg_of_pericenter": 287.6101,
        "meta_mean_anomaly": 72.4284,
        "meta_ephemeris_type": 0,
        "meta_classification_type": "U",
        "meta_norad_cat_id": 67222,
        "meta_element_set_no": 999,
        "meta_rev_at_epoch": 31,
        "meta_bstar": 0.00010184381,
        "meta_mean_motion_dot": 1.252e-05,
        "meta_mean_motion_ddot": 0,
        "tle_line1": "1 67222U 25305D   25354.31483363  .00001252  00000+0  10184-3 0  9990",
        "tle_line2": "2 67222  45.0056 310.4150 0004477 287.6101  72.4284 15.05567005   317"
      },
      "geometry": {
        "type": "Point",
        "coordinates": [
          18.368302235061567,
          43.82065802001122
        ]
      }
    },
    {
      "type": "Feature",
      "properties": {
        "norad_id": 67223,
        "name": "ELECTRON KICK STAGE R/B",
        "group": "last-30-days",
        "lat": 44.47734957413037,
        "lon": 9.365207134543748,
        "alt_km": 421.34560797343875,
        "timestamp": "2025-12-27T13:34:48.011223+00:00",
        "meta_object_name": "ELECTRON KICK STAGE R/B",
        "meta_object_id": "2025-305E",
        "meta_epoch": "2025-12-23T06:58:48.011808",
        "meta_mean_motion": 15.48545747,
        "meta_eccentricity": 0.017749,
        "meta_inclination": 44.9877,
        "meta_ra_of_asc_node": 292.9264,
        "meta_arg_of_pericenter": 166.6089,
        "meta_mean_anomaly": 193.9601,
        "meta_ephemeris_type": 0,
        "meta_classification_type": "U",
        "meta_norad_cat_id": 67223,
        "meta_element_set_no": 999,
        "meta_rev_at_epoch": 79,
        "meta_bstar": 0.00018366,
        "meta_mean_motion_dot": 0.00018707,
        "meta_mean_motion_ddot": 0,
        "tle_line1": "1 67223U 25305E   25357.29083347  .00018707  00000+0  18366-3 0  9992",
        "tle_line2": "2 67223  44.9877 292.9264 0177490 166.6089 193.9601 15.48545747   794"
      },
      "geometry": {
        "type": "Point",
        "coordinates": [
          9.365207134543748,
          44.47734957413037
        ]
      }
    }
  ]
}